[Satellite]
VERSION=1.1
NAME=INTELSAT 18 (IS-18)
NICKNAME=INTELSAT 18 (IS-18)
TLE1=1 37834U 11056A   15054.23261245  .00000027  00000-0  00000+0 0  9996
TLE2=2 37834   0.0155 103.1537 0001780 216.9361  96.3976  1.00269601 12471
